; Atomstack personal controller - machine-coordinate export
; Confirmed machine origin: X-288.000 Y-301.000
G21
G90
M5
S0
; 1: rectangle X10 Y10 40x30 - F1000 S300 - 1 pass(es)
; pass 1
G53 G0 X-278.000 Y-291.000
M4 S300
G53 G1 X-238.000 Y-291.000 F1000
G53 G1 X-238.000 Y-261.000 F1000
G53 G1 X-278.000 Y-261.000 F1000
G53 G1 X-278.000 Y-291.000 F1000
M5
S0
; 2: circle X80 Y50 35x35 - F1800 S450 - 2 pass(es)
; pass 1
G53 G0 X-173.000 Y-233.500
M4 S450
G53 G1 X-173.067 Y-231.975 F1800
G53 G1 X-173.266 Y-230.461 F1800
G53 G1 X-173.596 Y-228.971 F1800
G53 G1 X-174.055 Y-227.515 F1800
G53 G1 X-174.640 Y-226.104 F1800
G53 G1 X-175.345 Y-224.750 F1800
G53 G1 X-176.165 Y-223.462 F1800
G53 G1 X-177.094 Y-222.251 F1800
G53 G1 X-178.126 Y-221.126 F1800
G53 G1 X-179.251 Y-220.094 F1800
G53 G1 X-180.462 Y-219.165 F1800
G53 G1 X-181.750 Y-218.345 F1800
G53 G1 X-183.104 Y-217.640 F1800
G53 G1 X-184.515 Y-217.055 F1800
G53 G1 X-185.971 Y-216.596 F1800
G53 G1 X-187.461 Y-216.266 F1800
G53 G1 X-188.975 Y-216.067 F1800
G53 G1 X-190.500 Y-216.000 F1800
G53 G1 X-192.025 Y-216.067 F1800
G53 G1 X-193.539 Y-216.266 F1800
G53 G1 X-195.029 Y-216.596 F1800
G53 G1 X-196.485 Y-217.055 F1800
G53 G1 X-197.896 Y-217.640 F1800
G53 G1 X-199.250 Y-218.345 F1800
G53 G1 X-200.538 Y-219.165 F1800
G53 G1 X-201.749 Y-220.094 F1800
G53 G1 X-202.874 Y-221.126 F1800
G53 G1 X-203.906 Y-222.251 F1800
G53 G1 X-204.835 Y-223.462 F1800
G53 G1 X-205.655 Y-224.750 F1800
G53 G1 X-206.360 Y-226.104 F1800
G53 G1 X-206.945 Y-227.515 F1800
G53 G1 X-207.404 Y-228.971 F1800
G53 G1 X-207.734 Y-230.461 F1800
G53 G1 X-207.933 Y-231.975 F1800
G53 G1 X-208.000 Y-233.500 F1800
G53 G1 X-207.933 Y-235.025 F1800
G53 G1 X-207.734 Y-236.539 F1800
G53 G1 X-207.404 Y-238.029 F1800
G53 G1 X-206.945 Y-239.485 F1800
G53 G1 X-206.360 Y-240.896 F1800
G53 G1 X-205.655 Y-242.250 F1800
G53 G1 X-204.835 Y-243.538 F1800
G53 G1 X-203.906 Y-244.749 F1800
G53 G1 X-202.874 Y-245.874 F1800
G53 G1 X-201.749 Y-246.906 F1800
G53 G1 X-200.538 Y-247.835 F1800
G53 G1 X-199.250 Y-248.655 F1800
G53 G1 X-197.896 Y-249.360 F1800
G53 G1 X-196.485 Y-249.945 F1800
G53 G1 X-195.029 Y-250.404 F1800
G53 G1 X-193.539 Y-250.734 F1800
G53 G1 X-192.025 Y-250.933 F1800
G53 G1 X-190.500 Y-251.000 F1800
G53 G1 X-188.975 Y-250.933 F1800
G53 G1 X-187.461 Y-250.734 F1800
G53 G1 X-185.971 Y-250.404 F1800
G53 G1 X-184.515 Y-249.945 F1800
G53 G1 X-183.104 Y-249.360 F1800
G53 G1 X-181.750 Y-248.655 F1800
G53 G1 X-180.462 Y-247.835 F1800
G53 G1 X-179.251 Y-246.906 F1800
G53 G1 X-178.126 Y-245.874 F1800
G53 G1 X-177.094 Y-244.749 F1800
G53 G1 X-176.165 Y-243.538 F1800
G53 G1 X-175.345 Y-242.250 F1800
G53 G1 X-174.640 Y-240.896 F1800
G53 G1 X-174.055 Y-239.485 F1800
G53 G1 X-173.596 Y-238.029 F1800
G53 G1 X-173.266 Y-236.539 F1800
G53 G1 X-173.067 Y-235.025 F1800
G53 G1 X-173.000 Y-233.500 F1800
M5
S0
; pass 2
G53 G0 X-173.000 Y-233.500
M4 S450
G53 G1 X-173.067 Y-231.975 F1800
G53 G1 X-173.266 Y-230.461 F1800
G53 G1 X-173.596 Y-228.971 F1800
G53 G1 X-174.055 Y-227.515 F1800
G53 G1 X-174.640 Y-226.104 F1800
G53 G1 X-175.345 Y-224.750 F1800
G53 G1 X-176.165 Y-223.462 F1800
G53 G1 X-177.094 Y-222.251 F1800
G53 G1 X-178.126 Y-221.126 F1800
G53 G1 X-179.251 Y-220.094 F1800
G53 G1 X-180.462 Y-219.165 F1800
G53 G1 X-181.750 Y-218.345 F1800
G53 G1 X-183.104 Y-217.640 F1800
G53 G1 X-184.515 Y-217.055 F1800
G53 G1 X-185.971 Y-216.596 F1800
G53 G1 X-187.461 Y-216.266 F1800
G53 G1 X-188.975 Y-216.067 F1800
G53 G1 X-190.500 Y-216.000 F1800
G53 G1 X-192.025 Y-216.067 F1800
G53 G1 X-193.539 Y-216.266 F1800
G53 G1 X-195.029 Y-216.596 F1800
G53 G1 X-196.485 Y-217.055 F1800
G53 G1 X-197.896 Y-217.640 F1800
G53 G1 X-199.250 Y-218.345 F1800
G53 G1 X-200.538 Y-219.165 F1800
G53 G1 X-201.749 Y-220.094 F1800
G53 G1 X-202.874 Y-221.126 F1800
G53 G1 X-203.906 Y-222.251 F1800
G53 G1 X-204.835 Y-223.462 F1800
G53 G1 X-205.655 Y-224.750 F1800
G53 G1 X-206.360 Y-226.104 F1800
G53 G1 X-206.945 Y-227.515 F1800
G53 G1 X-207.404 Y-228.971 F1800
G53 G1 X-207.734 Y-230.461 F1800
G53 G1 X-207.933 Y-231.975 F1800
G53 G1 X-208.000 Y-233.500 F1800
G53 G1 X-207.933 Y-235.025 F1800
G53 G1 X-207.734 Y-236.539 F1800
G53 G1 X-207.404 Y-238.029 F1800
G53 G1 X-206.945 Y-239.485 F1800
G53 G1 X-206.360 Y-240.896 F1800
G53 G1 X-205.655 Y-242.250 F1800
G53 G1 X-204.835 Y-243.538 F1800
G53 G1 X-203.906 Y-244.749 F1800
G53 G1 X-202.874 Y-245.874 F1800
G53 G1 X-201.749 Y-246.906 F1800
G53 G1 X-200.538 Y-247.835 F1800
G53 G1 X-199.250 Y-248.655 F1800
G53 G1 X-197.896 Y-249.360 F1800
G53 G1 X-196.485 Y-249.945 F1800
G53 G1 X-195.029 Y-250.404 F1800
G53 G1 X-193.539 Y-250.734 F1800
G53 G1 X-192.025 Y-250.933 F1800
G53 G1 X-190.500 Y-251.000 F1800
G53 G1 X-188.975 Y-250.933 F1800
G53 G1 X-187.461 Y-250.734 F1800
G53 G1 X-185.971 Y-250.404 F1800
G53 G1 X-184.515 Y-249.945 F1800
G53 G1 X-183.104 Y-249.360 F1800
G53 G1 X-181.750 Y-248.655 F1800
G53 G1 X-180.462 Y-247.835 F1800
G53 G1 X-179.251 Y-246.906 F1800
G53 G1 X-178.126 Y-245.874 F1800
G53 G1 X-177.094 Y-244.749 F1800
G53 G1 X-176.165 Y-243.538 F1800
G53 G1 X-175.345 Y-242.250 F1800
G53 G1 X-174.640 Y-240.896 F1800
G53 G1 X-174.055 Y-239.485 F1800
G53 G1 X-173.596 Y-238.029 F1800
G53 G1 X-173.266 Y-236.539 F1800
G53 G1 X-173.067 Y-235.025 F1800
G53 G1 X-173.000 Y-233.500 F1800
M5
S0
; 3: text 'ATOM 10' X135 Y55 90x20 - F900 S250 - 1 pass(es)
; pass 1
G53 G0 X-153.000 Y-245.670
M4 S250
G53 G1 X-147.220 Y-226.343 F900
G53 G1 X-145.074 Y-226.343 F900
G53 G1 X-138.914 Y-245.670 F900
G53 G1 X-141.183 Y-245.670 F900
G53 G1 X-142.938 Y-239.817 F900
G53 G1 X-149.232 Y-239.817 F900
G53 G1 X-150.885 Y-245.670 F900
G53 G1 X-153.000 Y-245.670 F900
M5
S0
G53 G0 X-148.657 Y-237.734
M4 S250
G53 G1 X-143.554 Y-237.734 F900
G53 G1 X-145.125 Y-232.381 F900
G53 G1 X-145.265 Y-231.902 F900
G53 G1 X-145.398 Y-231.440 F900
G53 G1 X-145.523 Y-230.996 F900
G53 G1 X-145.641 Y-230.569 F900
G53 G1 X-145.752 Y-230.160 F900
G53 G1 X-145.855 Y-229.767 F900
G53 G1 X-145.950 Y-229.393 F900
G53 G1 X-146.039 Y-229.035 F900
G53 G1 X-146.120 Y-228.696 F900
G53 G1 X-146.193 Y-228.373 F900
G53 G1 X-146.253 Y-228.745 F900
G53 G1 X-146.317 Y-229.116 F900
G53 G1 X-146.387 Y-229.486 F900
G53 G1 X-146.461 Y-229.856 F900
G53 G1 X-146.540 Y-230.225 F900
G53 G1 X-146.623 Y-230.594 F900
G53 G1 X-146.711 Y-230.963 F900
G53 G1 X-146.804 Y-231.331 F900
G53 G1 X-146.902 Y-231.698 F900
G53 G1 X-147.004 Y-232.065 F900
G53 G1 X-148.657 Y-237.734 F900
M5
S0
G53 G0 X-133.493 Y-245.670
M4 S250
G53 G1 X-133.493 Y-228.624 F900
G53 G1 X-138.452 Y-228.624 F900
G53 G1 X-138.452 Y-226.343 F900
G53 G1 X-126.522 Y-226.343 F900
G53 G1 X-126.522 Y-228.624 F900
G53 G1 X-131.501 Y-228.624 F900
G53 G1 X-131.501 Y-245.670 F900
G53 G1 X-133.493 Y-245.670 F900
M5
S0
G53 G0 X-125.084 Y-236.257
M4 S250
G53 G1 X-125.064 Y-235.316 F900
G53 G1 X-125.004 Y-234.416 F900
G53 G1 X-124.903 Y-233.558 F900
G53 G1 X-124.762 Y-232.742 F900
G53 G1 X-124.581 Y-231.967 F900
G53 G1 X-124.360 Y-231.235 F900
G53 G1 X-124.098 Y-230.544 F900
G53 G1 X-123.796 Y-229.895 F900
G53 G1 X-123.454 Y-229.288 F900
G53 G1 X-123.072 Y-228.722 F900
G53 G1 X-122.658 Y-228.205 F900
G53 G1 X-122.220 Y-227.742 F900
G53 G1 X-121.759 Y-227.334 F900
G53 G1 X-121.275 Y-226.980 F900
G53 G1 X-120.767 Y-226.681 F900
G53 G1 X-120.236 Y-226.436 F900
G53 G1 X-119.681 Y-226.245 F900
G53 G1 X-119.103 Y-226.109 F900
G53 G1 X-118.502 Y-226.027 F900
G53 G1 X-117.877 Y-226.000 F900
G53 G1 X-117.464 Y-226.013 F900
G53 G1 X-117.060 Y-226.051 F900
G53 G1 X-116.663 Y-226.115 F900
G53 G1 X-116.275 Y-226.205 F900
G53 G1 X-115.895 Y-226.320 F900
G53 G1 X-115.524 Y-226.460 F900
G53 G1 X-115.160 Y-226.627 F900
G53 G1 X-114.805 Y-226.818 F900
G53 G1 X-114.458 Y-227.036 F900
G53 G1 X-114.119 Y-227.279 F900
G53 G1 X-113.792 Y-227.545 F900
G53 G1 X-113.482 Y-227.831 F900
G53 G1 X-113.187 Y-228.137 F900
G53 G1 X-112.908 Y-228.463 F900
G53 G1 X-112.645 Y-228.810 F900
G53 G1 X-112.397 Y-229.177 F900
G53 G1 X-112.166 Y-229.563 F900
G53 G1 X-111.951 Y-229.970 F900
G53 G1 X-111.751 Y-230.398 F900
G53 G1 X-111.568 Y-230.845 F900
G53 G1 X-111.401 Y-231.309 F900
G53 G1 X-111.252 Y-231.785 F900
G53 G1 X-111.120 Y-232.273 F900
G53 G1 X-111.006 Y-232.773 F900
G53 G1 X-110.909 Y-233.286 F900
G53 G1 X-110.830 Y-233.811 F900
G53 G1 X-110.769 Y-234.348 F900
G53 G1 X-110.725 Y-234.897 F900
G53 G1 X-110.699 Y-235.459 F900
G53 G1 X-110.690 Y-236.033 F900
G53 G1 X-110.699 Y-236.615 F900
G53 G1 X-110.727 Y-237.184 F900
G53 G1 X-110.773 Y-237.741 F900
G53 G1 X-110.838 Y-238.286 F900
G53 G1 X-110.921 Y-238.818 F900
G53 G1 X-111.023 Y-239.338 F900
G53 G1 X-111.143 Y-239.845 F900
G53 G1 X-111.281 Y-240.340 F900
G53 G1 X-111.438 Y-240.823 F900
G53 G1 X-111.614 Y-241.293 F900
G53 G1 X-111.806 Y-241.746 F900
G53 G1 X-112.014 Y-242.176 F900
G53 G1 X-112.238 Y-242.584 F900
G53 G1 X-112.476 Y-242.969 F900
G53 G1 X-112.730 Y-243.332 F900
G53 G1 X-113.000 Y-243.672 F900
G53 G1 X-113.285 Y-243.990 F900
G53 G1 X-113.585 Y-244.285 F900
G53 G1 X-113.901 Y-244.557 F900
G53 G1 X-114.232 Y-244.807 F900
G53 G1 X-114.574 Y-245.034 F900
G53 G1 X-114.920 Y-245.236 F900
G53 G1 X-115.272 Y-245.415 F900
G53 G1 X-115.630 Y-245.570 F900
G53 G1 X-115.993 Y-245.702 F900
G53 G1 X-116.361 Y-245.809 F900
G53 G1 X-116.734 Y-245.893 F900
G53 G1 X-117.113 Y-245.952 F900
G53 G1 X-117.498 Y-245.988 F900
G53 G1 X-117.887 Y-246.000 F900
G53 G1 X-118.308 Y-245.987 F900
G53 G1 X-118.719 Y-245.947 F900
G53 G1 X-119.122 Y-245.881 F900
G53 G1 X-119.515 Y-245.789 F900
G53 G1 X-119.899 Y-245.670 F900
G53 G1 X-120.275 Y-245.525 F900
G53 G1 X-120.641 Y-245.354 F900
G53 G1 X-120.998 Y-245.156 F900
G53 G1 X-121.347 Y-244.932 F900
G53 G1 X-121.686 Y-244.682 F900
G53 G1 X-122.012 Y-244.408 F900
G53 G1 X-122.323 Y-244.116 F900
G53 G1 X-122.617 Y-243.804 F900
G53 G1 X-122.895 Y-243.473 F900
G53 G1 X-123.157 Y-243.123 F900
G53 G1 X-123.402 Y-242.753 F900
G53 G1 X-123.631 Y-242.364 F900
G53 G1 X-123.844 Y-241.956 F900
G53 G1 X-124.041 Y-241.529 F900
G53 G1 X-124.222 Y-241.082 F900
G53 G1 X-124.386 Y-240.624 F900
G53 G1 X-124.532 Y-240.160 F900
G53 G1 X-124.662 Y-239.690 F900
G53 G1 X-124.774 Y-239.216 F900
G53 G1 X-124.869 Y-238.736 F900
G53 G1 X-124.946 Y-238.250 F900
G53 G1 X-125.007 Y-237.760 F900
G53 G1 X-125.050 Y-237.264 F900
G53 G1 X-125.076 Y-236.763 F900
G53 G1 X-125.084 Y-236.257 F900
M5
S0
G53 G0 X-123.031 Y-236.297
M4 S250
G53 G1 X-123.016 Y-236.981 F900
G53 G1 X-122.972 Y-237.635 F900
G53 G1 X-122.899 Y-238.259 F900
G53 G1 X-122.797 Y-238.854 F900
G53 G1 X-122.665 Y-239.420 F900
G53 G1 X-122.504 Y-239.955 F900
G53 G1 X-122.314 Y-240.461 F900
G53 G1 X-122.094 Y-240.937 F900
G53 G1 X-121.846 Y-241.384 F900
G53 G1 X-121.568 Y-241.801 F900
G53 G1 X-121.268 Y-242.183 F900
G53 G1 X-120.953 Y-242.525 F900
G53 G1 X-120.623 Y-242.826 F900
G53 G1 X-120.278 Y-243.088 F900
G53 G1 X-119.919 Y-243.309 F900
G53 G1 X-119.544 Y-243.490 F900
G53 G1 X-119.155 Y-243.631 F900
G53 G1 X-118.751 Y-243.731 F900
G53 G1 X-118.331 Y-243.791 F900
G53 G1 X-117.897 Y-243.811 F900
G53 G1 X-117.456 Y-243.791 F900
G53 G1 X-117.030 Y-243.730 F900
G53 G1 X-116.620 Y-243.629 F900
G53 G1 X-116.226 Y-243.487 F900
G53 G1 X-115.848 Y-243.304 F900
G53 G1 X-115.486 Y-243.081 F900
G53 G1 X-115.139 Y-242.817 F900
G53 G1 X-114.809 Y-242.512 F900
G53 G1 X-114.495 Y-242.167 F900
G53 G1 X-114.196 Y-241.781 F900
G53 G1 X-113.920 Y-241.358 F900
G53 G1 X-113.673 Y-240.901 F900
G53 G1 X-113.455 Y-240.410 F900
G53 G1 X-113.266 Y-239.885 F900
G53 G1 X-113.107 Y-239.326 F900
G53 G1 X-112.976 Y-238.732 F900
G53 G1 X-112.874 Y-238.105 F900
G53 G1 X-112.801 Y-237.444 F900
G53 G1 X-112.758 Y-236.749 F900
G53 G1 X-112.743 Y-236.020 F900
G53 G1 X-112.750 Y-235.554 F900
G53 G1 X-112.768 Y-235.100 F900
G53 G1 X-112.799 Y-234.658 F900
G53 G1 X-112.843 Y-234.228 F900
G53 G1 X-112.899 Y-233.810 F900
G53 G1 X-112.967 Y-233.404 F900
G53 G1 X-113.048 Y-233.010 F900
G53 G1 X-113.141 Y-232.628 F900
G53 G1 X-113.246 Y-232.258 F900
G53 G1 X-113.364 Y-231.900 F900
G53 G1 X-113.494 Y-231.556 F900
G53 G1 X-113.636 Y-231.227 F900
G53 G1 X-113.789 Y-230.915 F900
G53 G1 X-113.953 Y-230.618 F900
G53 G1 X-114.129 Y-230.338 F900
G53 G1 X-114.317 Y-230.073 F900
G53 G1 X-114.516 Y-229.823 F900
G53 G1 X-114.726 Y-229.590 F900
G53 G1 X-114.948 Y-229.372 F900
G53 G1 X-115.182 Y-229.171 F900
G53 G1 X-115.424 Y-228.987 F900
G53 G1 X-115.672 Y-228.822 F900
G53 G1 X-115.926 Y-228.677 F900
G53 G1 X-116.185 Y-228.551 F900
G53 G1 X-116.451 Y-228.444 F900
G53 G1 X-116.722 Y-228.357 F900
G53 G1 X-117.000 Y-228.289 F900
G53 G1 X-117.283 Y-228.240 F900
G53 G1 X-117.572 Y-228.211 F900
G53 G1 X-117.867 Y-228.202 F900
G53 G1 X-118.284 Y-228.220 F900
G53 G1 X-118.689 Y-228.276 F900
G53 G1 X-119.082 Y-228.370 F900
G53 G1 X-119.464 Y-228.500 F900
G53 G1 X-119.834 Y-228.668 F900
G53 G1 X-120.192 Y-228.873 F900
G53 G1 X-120.538 Y-229.116 F900
G53 G1 X-120.873 Y-229.396 F900
G53 G1 X-121.195 Y-229.713 F900
G53 G1 X-121.506 Y-230.067 F900
G53 G1 X-121.796 Y-230.465 F900
G53 G1 X-122.055 Y-230.913 F900
G53 G1 X-122.284 Y-231.411 F900
G53 G1 X-122.482 Y-231.959 F900
G53 G1 X-122.650 Y-232.557 F900
G53 G1 X-122.787 Y-233.205 F900
G53 G1 X-122.894 Y-233.903 F900
G53 G1 X-122.970 Y-234.651 F900
G53 G1 X-123.016 Y-235.449 F900
G53 G1 X-123.031 Y-236.297 F900
M5
S0
G53 G0 X-108.185 Y-245.670
M4 S250
G53 G1 X-108.185 Y-226.343 F900
G53 G1 X-105.187 Y-226.343 F900
G53 G1 X-101.624 Y-240.028 F900
G53 G1 X-101.528 Y-240.400 F900
G53 G1 X-101.438 Y-240.754 F900
G53 G1 X-101.353 Y-241.088 F900
G53 G1 X-101.273 Y-241.403 F900
G53 G1 X-101.198 Y-241.699 F900
G53 G1 X-101.129 Y-241.975 F900
G53 G1 X-101.065 Y-242.232 F900
G53 G1 X-101.007 Y-242.470 F900
G53 G1 X-100.953 Y-242.689 F900
G53 G1 X-100.906 Y-242.889 F900
G53 G1 X-100.851 Y-242.668 F900
G53 G1 X-100.791 Y-242.427 F900
G53 G1 X-100.726 Y-242.167 F900
G53 G1 X-100.654 Y-241.887 F900
G53 G1 X-100.577 Y-241.587 F900
G53 G1 X-100.494 Y-241.267 F900
G53 G1 X-100.405 Y-240.927 F900
G53 G1 X-100.311 Y-240.568 F900
G53 G1 X-100.211 Y-240.189 F900
G53 G1 X-100.105 Y-239.790 F900
G53 G1 X-96.501 Y-226.343 F900
G53 G1 X-93.821 Y-226.343 F900
G53 G1 X-93.821 Y-245.670 F900
G53 G1 X-95.741 Y-245.670 F900
G53 G1 X-95.741 Y-229.494 F900
G53 G1 X-100.115 Y-245.670 F900
G53 G1 X-101.912 Y-245.670 F900
G53 G1 X-106.265 Y-229.217 F900
G53 G1 X-106.265 Y-245.670 F900
G53 G1 X-108.185 Y-245.670 F900
M5
S0
G53 G0 X-78.554 Y-245.670
M4 S250
G53 G1 X-80.402 Y-245.670 F900
G53 G1 X-80.402 Y-230.548 F900
G53 G1 X-80.540 Y-230.712 F900
G53 G1 X-80.686 Y-230.875 F900
G53 G1 X-80.840 Y-231.039 F900
G53 G1 X-81.003 Y-231.202 F900
G53 G1 X-81.174 Y-231.366 F900
G53 G1 X-81.353 Y-231.529 F900
G53 G1 X-81.541 Y-231.693 F900
G53 G1 X-81.736 Y-231.856 F900
G53 G1 X-81.941 Y-232.020 F900
G53 G1 X-82.153 Y-232.183 F900
G53 G1 X-82.367 Y-232.343 F900
G53 G1 X-82.577 Y-232.494 F900
G53 G1 X-82.783 Y-232.637 F900
G53 G1 X-82.984 Y-232.772 F900
G53 G1 X-83.181 Y-232.898 F900
G53 G1 X-83.373 Y-233.017 F900
G53 G1 X-83.561 Y-233.127 F900
G53 G1 X-83.745 Y-233.230 F900
G53 G1 X-83.924 Y-233.324 F900
G53 G1 X-84.099 Y-233.409 F900
G53 G1 X-84.099 Y-231.115 F900
G53 G1 X-83.792 Y-230.924 F900
G53 G1 X-83.494 Y-230.725 F900
G53 G1 X-83.203 Y-230.518 F900
G53 G1 X-82.921 Y-230.303 F900
G53 G1 X-82.646 Y-230.080 F900
G53 G1 X-82.379 Y-229.850 F900
G53 G1 X-82.119 Y-229.611 F900
G53 G1 X-81.868 Y-229.365 F900
G53 G1 X-81.624 Y-229.110 F900
G53 G1 X-81.388 Y-228.848 F900
G53 G1 X-81.163 Y-228.582 F900
G53 G1 X-80.951 Y-228.318 F900
G53 G1 X-80.753 Y-228.056 F900
G53 G1 X-80.568 Y-227.795 F900
G53 G1 X-80.397 Y-227.536 F900
G53 G1 X-80.240 Y-227.278 F900
G53 G1 X-80.096 Y-227.022 F900
G53 G1 X-79.966 Y-226.768 F900
G53 G1 X-79.849 Y-226.515 F900
G53 G1 X-79.745 Y-226.264 F900
G53 G1 X-78.554 Y-226.264 F900
G53 G1 X-78.554 Y-245.670 F900
M5
S0
G53 G0 X-73.821 Y-236.138
M4 S250
G53 G1 X-73.816 Y-235.466 F900
G53 G1 X-73.799 Y-234.821 F900
G53 G1 X-73.772 Y-234.202 F900
G53 G1 X-73.733 Y-233.610 F900
G53 G1 X-73.684 Y-233.045 F900
G53 G1 X-73.624 Y-232.507 F900
G53 G1 X-73.552 Y-231.995 F900
G53 G1 X-73.470 Y-231.510 F900
G53 G1 X-73.376 Y-231.052 F900
G53 G1 X-73.272 Y-230.621 F900
G53 G1 X-73.157 Y-230.213 F900
G53 G1 X-73.031 Y-229.823 F900
G53 G1 X-72.894 Y-229.453 F900
G53 G1 X-72.747 Y-229.102 F900
G53 G1 X-72.589 Y-228.770 F900
G53 G1 X-72.421 Y-228.457 F900
G53 G1 X-72.241 Y-228.164 F900
G53 G1 X-72.052 Y-227.889 F900
G53 G1 X-71.851 Y-227.634 F900
G53 G1 X-71.640 Y-227.397 F900
G53 G1 X-71.417 Y-227.182 F900
G53 G1 X-71.184 Y-226.989 F900
G53 G1 X-70.939 Y-226.819 F900
G53 G1 X-70.684 Y-226.672 F900
G53 G1 X-70.417 Y-226.547 F900
G53 G1 X-70.138 Y-226.445 F900
G53 G1 X-69.849 Y-226.366 F900
G53 G1 X-69.548 Y-226.309 F900
G53 G1 X-69.237 Y-226.275 F900
G53 G1 X-68.914 Y-226.264 F900
G53 G1 X-68.674 Y-226.270 F900
G53 G1 X-68.441 Y-226.289 F900
G53 G1 X-68.214 Y-226.320 F900
G53 G1 X-67.992 Y-226.364 F900
G53 G1 X-67.777 Y-226.420 F900
G53 G1 X-67.567 Y-226.489 F900
G53 G1 X-67.364 Y-226.571 F900
G53 G1 X-67.166 Y-226.664 F900
G53 G1 X-66.974 Y-226.771 F900
G53 G1 X-66.789 Y-226.890 F900
G53 G1 X-66.609 Y-227.021 F900
G53 G1 X-66.436 Y-227.163 F900
G53 G1 X-66.269 Y-227.315 F900
G53 G1 X-66.108 Y-227.479 F900
G53 G1 X-65.954 Y-227.655 F900
G53 G1 X-65.807 Y-227.841 F900
G53 G1 X-65.665 Y-228.038 F900
G53 G1 X-65.530 Y-228.246 F900
G53 G1 X-65.402 Y-228.466 F900
G53 G1 X-65.279 Y-228.696 F900
G53 G1 X-65.163 Y-228.937 F900
G53 G1 X-65.051 Y-229.189 F900
G53 G1 X-64.945 Y-229.450 F900
G53 G1 X-64.844 Y-229.722 F900
G53 G1 X-64.748 Y-230.005 F900
G53 G1 X-64.657 Y-230.297 F900
G53 G1 X-64.571 Y-230.600 F900
G53 G1 X-64.491 Y-230.913 F900
G53 G1 X-64.415 Y-231.237 F900
G53 G1 X-64.345 Y-231.570 F900
G53 G1 X-64.281 Y-231.921 F900
G53 G1 X-64.223 Y-232.295 F900
G53 G1 X-64.172 Y-232.693 F900
G53 G1 X-64.128 Y-233.114 F900
G53 G1 X-64.091 Y-233.559 F900
G53 G1 X-64.060 Y-234.028 F900
G53 G1 X-64.037 Y-234.520 F900
G53 G1 X-64.020 Y-235.036 F900
G53 G1 X-64.010 Y-235.575 F900
G53 G1 X-64.006 Y-236.138 F900
G53 G1 X-64.012 Y-236.806 F900
G53 G1 X-64.028 Y-237.447 F900
G53 G1 X-64.055 Y-238.061 F900
G53 G1 X-64.093 Y-238.650 F900
G53 G1 X-64.142 Y-239.212 F900
G53 G1 X-64.202 Y-239.748 F900
G53 G1 X-64.273 Y-240.258 F900
G53 G1 X-64.354 Y-240.741 F900
G53 G1 X-64.447 Y-241.198 F900
G53 G1 X-64.550 Y-241.630 F900
G53 G1 X-64.665 Y-242.038 F900
G53 G1 X-64.790 Y-242.427 F900
G53 G1 X-64.925 Y-242.798 F900
G53 G1 X-65.072 Y-243.149 F900
G53 G1 X-65.229 Y-243.482 F900
G53 G1 X-65.397 Y-243.795 F900
G53 G1 X-65.576 Y-244.090 F900
G53 G1 X-65.766 Y-244.365 F900
G53 G1 X-65.966 Y-244.622 F900
G53 G1 X-66.178 Y-244.860 F900
G53 G1 X-66.400 Y-245.076 F900
G53 G1 X-66.634 Y-245.270 F900
G53 G1 X-66.879 Y-245.441 F900
G53 G1 X-67.135 Y-245.589 F900
G53 G1 X-67.403 Y-245.715 F900
G53 G1 X-67.683 Y-245.818 F900
G53 G1 X-67.973 Y-245.897 F900
G53 G1 X-68.275 Y-245.954 F900
G53 G1 X-68.589 Y-245.989 F900
G53 G1 X-68.914 Y-246.000 F900
G53 G1 X-69.340 Y-245.980 F900
G53 G1 X-69.747 Y-245.920 F900
G53 G1 X-70.136 Y-245.820 F900
G53 G1 X-70.506 Y-245.679 F900
G53 G1 X-70.857 Y-245.499 F900
G53 G1 X-71.189 Y-245.279 F900
G53 G1 X-71.503 Y-245.018 F900
G53 G1 X-71.798 Y-244.717 F900
G53 G1 X-72.075 Y-244.377 F900
G53 G1 X-72.333 Y-243.996 F900
G53 G1 X-72.616 Y-243.483 F900
G53 G1 X-72.869 Y-242.910 F900
G53 G1 X-73.092 Y-242.276 F900
G53 G1 X-73.285 Y-241.581 F900
G53 G1 X-73.449 Y-240.825 F900
G53 G1 X-73.583 Y-240.009 F900
G53 G1 X-73.687 Y-239.132 F900
G53 G1 X-73.762 Y-238.195 F900
G53 G1 X-73.806 Y-237.197 F900
G53 G1 X-73.821 Y-236.138 F900
M5
S0
G53 G0 X-71.922 Y-236.138
M4 S250
G53 G1 X-71.913 Y-237.058 F900
G53 G1 X-71.887 Y-237.915 F900
G53 G1 X-71.844 Y-238.708 F900
G53 G1 X-71.783 Y-239.437 F900
G53 G1 X-71.705 Y-240.102 F900
G53 G1 X-71.610 Y-240.703 F900
G53 G1 X-71.497 Y-241.241 F900
G53 G1 X-71.367 Y-241.716 F900
G53 G1 X-71.219 Y-242.126 F900
G53 G1 X-71.054 Y-242.473 F900
G53 G1 X-70.877 Y-242.773 F900
G53 G1 X-70.691 Y-243.040 F900
G53 G1 X-70.497 Y-243.277 F900
G53 G1 X-70.295 Y-243.482 F900
G53 G1 X-70.085 Y-243.655 F900
G53 G1 X-69.867 Y-243.797 F900
G53 G1 X-69.641 Y-243.907 F900
G53 G1 X-69.407 Y-243.986 F900
G53 G1 X-69.164 Y-244.033 F900
G53 G1 X-68.914 Y-244.049 F900
G53 G1 X-68.663 Y-244.033 F900
G53 G1 X-68.421 Y-243.985 F900
G53 G1 X-68.186 Y-243.906 F900
G53 G1 X-67.960 Y-243.796 F900
G53 G1 X-67.742 Y-243.653 F900
G53 G1 X-67.532 Y-243.479 F900
G53 G1 X-67.330 Y-243.274 F900
G53 G1 X-67.136 Y-243.036 F900
G53 G1 X-66.951 Y-242.767 F900
G53 G1 X-66.773 Y-242.467 F900
G53 G1 X-66.608 Y-242.119 F900
G53 G1 X-66.461 Y-241.707 F900
G53 G1 X-66.331 Y-241.233 F900
G53 G1 X-66.218 Y-240.695 F900
G53 G1 X-66.122 Y-240.094 F900
G53 G1 X-66.044 Y-239.429 F900
G53 G1 X-65.984 Y-238.701 F900
G53 G1 X-65.940 Y-237.910 F900
G53 G1 X-65.914 Y-237.056 F900
G53 G1 X-65.906 Y-236.138 F900
G53 G1 X-65.914 Y-235.216 F900
G53 G1 X-65.940 Y-234.358 F900
G53 G1 X-65.984 Y-233.563 F900
G53 G1 X-66.044 Y-232.833 F900
G53 G1 X-66.122 Y-232.167 F900
G53 G1 X-66.218 Y-231.565 F900
G53 G1 X-66.331 Y-231.027 F900
G53 G1 X-66.461 Y-230.553 F900
G53 G1 X-66.608 Y-230.143 F900
G53 G1 X-66.773 Y-229.797 F900
G53 G1 X-66.951 Y-229.499 F900
G53 G1 X-67.137 Y-229.232 F900
G53 G1 X-67.332 Y-228.997 F900
G53 G1 X-67.535 Y-228.793 F900
G53 G1 X-67.747 Y-228.620 F900
G53 G1 X-67.968 Y-228.479 F900
G53 G1 X-68.196 Y-228.369 F900
G53 G1 X-68.434 Y-228.291 F900
G53 G1 X-68.680 Y-228.244 F900
G53 G1 X-68.934 Y-228.228 F900
G53 G1 X-69.184 Y-228.242 F900
G53 G1 X-69.423 Y-228.283 F900
G53 G1 X-69.652 Y-228.353 F900
G53 G1 X-69.871 Y-228.450 F900
G53 G1 X-70.079 Y-228.574 F900
G53 G1 X-70.277 Y-228.726 F900
G53 G1 X-70.465 Y-228.906 F900
G53 G1 X-70.643 Y-229.114 F900
G53 G1 X-70.810 Y-229.349 F900
G53 G1 X-70.967 Y-229.612 F900
G53 G1 X-71.149 Y-229.996 F900
G53 G1 X-71.311 Y-230.439 F900
G53 G1 X-71.454 Y-230.942 F900
G53 G1 X-71.578 Y-231.505 F900
G53 G1 X-71.683 Y-232.127 F900
G53 G1 X-71.769 Y-232.810 F900
G53 G1 X-71.836 Y-233.552 F900
G53 G1 X-71.884 Y-234.354 F900
G53 G1 X-71.912 Y-235.216 F900
G53 G1 X-71.922 Y-236.138 F900
M5
S0
; 4: rectangle X135 Y10 18x10 - F300 S100 - 1 pass(es)
; pass 1
G53 G0 X-153.000 Y-291.000
M4 S100
G53 G1 X-135.000 Y-291.000 F300
G53 G1 X-135.000 Y-281.000 F300
G53 G1 X-153.000 Y-281.000 F300
G53 G1 X-153.000 Y-291.000 F300
M5
S0
; 5: rectangle X155 Y10 18x10 - F600 S100 - 1 pass(es)
; pass 1
G53 G0 X-133.000 Y-291.000
M4 S100
G53 G1 X-115.000 Y-291.000 F600
G53 G1 X-115.000 Y-281.000 F600
G53 G1 X-133.000 Y-281.000 F600
G53 G1 X-133.000 Y-291.000 F600
M5
S0
; 6: rectangle X175 Y10 18x10 - F900 S100 - 1 pass(es)
; pass 1
G53 G0 X-113.000 Y-291.000
M4 S100
G53 G1 X-95.000 Y-291.000 F900
G53 G1 X-95.000 Y-281.000 F900
G53 G1 X-113.000 Y-281.000 F900
G53 G1 X-113.000 Y-291.000 F900
M5
S0
; 7: rectangle X135 Y22 18x10 - F300 S400 - 1 pass(es)
; pass 1
G53 G0 X-153.000 Y-279.000
M4 S400
G53 G1 X-135.000 Y-279.000 F300
G53 G1 X-135.000 Y-269.000 F300
G53 G1 X-153.000 Y-269.000 F300
G53 G1 X-153.000 Y-279.000 F300
M5
S0
; 8: rectangle X155 Y22 18x10 - F600 S400 - 1 pass(es)
; pass 1
G53 G0 X-133.000 Y-279.000
M4 S400
G53 G1 X-115.000 Y-279.000 F600
G53 G1 X-115.000 Y-269.000 F600
G53 G1 X-133.000 Y-269.000 F600
G53 G1 X-133.000 Y-279.000 F600
M5
S0
; 9: rectangle X175 Y22 18x10 - F900 S400 - 1 pass(es)
; pass 1
G53 G0 X-113.000 Y-279.000
M4 S400
G53 G1 X-95.000 Y-279.000 F900
G53 G1 X-95.000 Y-269.000 F900
G53 G1 X-113.000 Y-269.000 F900
G53 G1 X-113.000 Y-279.000 F900
M5
S0
M5
S0
; End - exported only, not sent by this application
